[{"OBJECT_NAME":"ONEWEB-0206","OBJECT_ID":"2021-031T","EPOCH":"2026-05-20T22:28:55.445376","MEAN_MOTION":13.14502101,"ECCENTRICITY":0.0001911,"INCLINATION":87.8943,"RA_OF_ASC_NODE":295.1325,"ARG_OF_PERICENTER":92.5425,"MEAN_ANOMALY":267.5924,"EPHEMERIS_TYPE":0,"CLASSIFICATION_TYPE":"U","NORAD_CAT_ID":48227,"ELEMENT_SET_NO":999,"REV_AT_EPOCH":24464,"BSTAR":2.8882000000000002e-05,"MEAN_MOTION_DOT":2.4e-07,"MEAN_MOTION_DDOT":0.0},{"OBJECT_NAME":"ONEWEB-0182","OBJECT_ID":"2021-031U","EPOCH":"2026-05-21T03:50:52.686528","MEAN_MOTION":13.14502323,"ECCENTRICITY":0.0002034,"INCLINATION":87.8938,"RA_OF_ASC_NODE":295.0964,"ARG_OF_PERICENTER":100.2097,"MEAN_ANOMALY":259.9262,"EPHEMERIS_TYPE":0,"CLASSIFICATION_TYPE":"U","NORAD_CAT_ID":48228,"ELEMENT_SET_NO":999,"REV_AT_EPOCH":24488,"BSTAR":-0.0010742,"MEAN_MOTION_DOT":-3.85e-06,"MEAN_MOTION_DDOT":0.0},{"OBJECT_NAME":"ONEWEB-0186","OBJECT_ID":"2021-031V","EPOCH":"2026-05-21T04:06:51.514848","MEAN_MOTION":13.14502916,"ECCENTRICITY":0.0001734,"INCLINATION":87.8945,"RA_OF_ASC_NODE":295.0831,"ARG_OF_PERICENTER":100.8082,"MEAN_ANOMALY":259.3243,"EPHEMERIS_TYPE":0,"CLASSIFICATION_TYPE":"U","NORAD_CAT_ID":48229,"ELEMENT_SET_NO":999,"REV_AT_EPOCH":24483,"BSTAR":-0.00045778999999999997,"MEAN_MOTION_DOT":-1.57e-06,"MEAN_MOTION_DDOT":0.0},{"OBJECT_NAME":"ONEWEB-0181","OBJECT_ID":"2021-031W","EPOCH":"2026-05-20T16:37:15.331584","MEAN_MOTION":13.1450387,"ECCENTRICITY":0.0001621,"INCLINATION":87.8927,"RA_OF_ASC_NODE":295.2122,"ARG_OF_PERICENTER":101.1104,"MEAN_ANOMALY":259.0208,"EPHEMERIS_TYPE":0,"CLASSIFICATION_TYPE":"U","NORAD_CAT_ID":48230,"ELEMENT_SET_NO":999,"REV_AT_EPOCH":24462,"BSTAR":-0.00061872,"MEAN_MOTION_DOT":-2.17e-06,"MEAN_MOTION_DDOT":0.0},{"OBJECT_NAME":"ONEWEB-0188","OBJECT_ID":"2021-031X","EPOCH":"2026-05-20T23:00:54.385056","MEAN_MOTION":13.14503543,"ECCENTRICITY":0.000183,"INCLINATION":87.8931,"RA_OF_ASC_NODE":295.1579,"ARG_OF_PERICENTER":99.3832,"MEAN_ANOMALY":260.7504,"EPHEMERIS_TYPE":0,"CLASSIFICATION_TYPE":"U","NORAD_CAT_ID":48231,"ELEMENT_SET_NO":999,"REV_AT_EPOCH":24456,"BSTAR":0.00032240999999999997,"MEAN_MOTION_DOT":1.32e-06,"MEAN_MOTION_DDOT":0.0},{"OBJECT_NAME":"ONEWEB-0220","OBJECT_ID":"2021-031Y","EPOCH":"2026-05-21T03:37:11.152992","MEAN_MOTION":13.14501381,"ECCENTRICITY":0.0001832,"INCLINATION":87.8946,"RA_OF_ASC_NODE":295.0885,"ARG_OF_PERICENTER":104.7694,"MEAN_ANOMALY":255.3639,"EPHEMERIS_TYPE":0,"CLASSIFICATION_TYPE":"U","NORAD_CAT_ID":48232,"ELEMENT_SET_NO":999,"REV_AT_EPOCH":24485,"BSTAR":-0.0006317,"MEAN_MOTION_DOT":-2.21e-06,"MEAN_MOTION_DDOT":0.0},{"OBJECT_NAME":"ONEWEB-0165","OBJECT_ID":"2021-031Z","EPOCH":"2026-05-20T22:49:27.876576","MEAN_MOTION":13.14500737,"ECCENTRICITY":0.0001477,"INCLINATION":87.8939,"RA_OF_ASC_NODE":295.1431,"ARG_OF_PERICENTER":101.0323,"MEAN_ANOMALY":259.0973,"EPHEMERIS_TYPE":0,"CLASSIFICATION_TYPE":"U","NORAD_CAT_ID":48233,"ELEMENT_SET_NO":999,"REV_AT_EPOCH":24478,"BSTAR":0.00065536,"MEAN_MOTION_DOT":2.56e-06,"MEAN_MOTION_DDOT":0.0},{"OBJECT_NAME":"ONEWEB-0199","OBJECT_ID":"2021-031AA","EPOCH":"2026-05-21T03:55:27.527520","MEAN_MOTION":13.14501465,"ECCENTRICITY":0.0001962,"INCLINATION":87.8946,"RA_OF_ASC_NODE":295.0849,"ARG_OF_PERICENTER":93.4176,"MEAN_ANOMALY":266.7179,"EPHEMERIS_TYPE":0,"CLASSIFICATION_TYPE":"U","NORAD_CAT_ID":48234,"ELEMENT_SET_NO":999,"REV_AT_EPOCH":24471,"BSTAR":-0.00032559,"MEAN_MOTION_DOT":-1.08e-06,"MEAN_MOTION_DDOT":0.0},{"OBJECT_NAME":"ONEWEB-0203","OBJECT_ID":"2021-031AB","EPOCH":"2026-05-20T16:44:05.001504","MEAN_MOTION":13.14501122,"ECCENTRICITY":0.0001736,"INCLINATION":87.8947,"RA_OF_ASC_NODE":295.1812,"ARG_OF_PERICENTER":92.6293,"MEAN_ANOMALY":267.5036,"EPHEMERIS_TYPE":0,"CLASSIFICATION_TYPE":"U","NORAD_CAT_ID":48235,"ELEMENT_SET_NO":999,"REV_AT_EPOCH":24466,"BSTAR":-0.00046539000000000004,"MEAN_MOTION_DOT":-1.6e-06,"MEAN_MOTION_DDOT":0.0},{"OBJECT_NAME":"ONEWEB-0197","OBJECT_ID":"2021-031AC","EPOCH":"2026-05-21T03:05:02.308416","MEAN_MOTION":13.14501976,"ECCENTRICITY":0.000202,"INCLINATION":87.8935,"RA_OF_ASC_NODE":295.0845,"ARG_OF_PERICENTER":103.2276,"MEAN_ANOMALY":256.908,"EPHEMERIS_TYPE":0,"CLASSIFICATION_TYPE":"U","NORAD_CAT_ID":48236,"ELEMENT_SET_NO":999,"REV_AT_EPOCH":24463,"BSTAR":-8.389400000000001e-05,"MEAN_MOTION_DOT":-1.8e-07,"MEAN_MOTION_DDOT":0.0},{"OBJECT_NAME":"ONEWEB-0194","OBJECT_ID":"2021-031AD","EPOCH":"2026-05-21T04:25:07.923072","MEAN_MOTION":13.14504181,"ECCENTRICITY":0.0001817,"INCLINATION":87.8941,"RA_OF_ASC_NODE":295.0939,"ARG_OF_PERICENTER":90.1076,"MEAN_ANOMALY":270.0262,"EPHEMERIS_TYPE":0,"CLASSIFICATION_TYPE":"U","NORAD_CAT_ID":48237,"ELEMENT_SET_NO":999,"REV_AT_EPOCH":24481,"BSTAR":0.00060265,"MEAN_MOTION_DOT":2.36e-06,"MEAN_MOTION_DDOT":0.0},{"OBJECT_NAME":"ONEWEB-0193","OBJECT_ID":"2021-031AE","EPOCH":"2026-05-21T02:58:21.623232","MEAN_MOTION":13.14504059,"ECCENTRICITY":0.0001898,"INCLINATION":87.8941,"RA_OF_ASC_NODE":295.0969,"ARG_OF_PERICENTER":83.792,"MEAN_ANOMALY":276.3426,"EPHEMERIS_TYPE":0,"CLASSIFICATION_TYPE":"U","NORAD_CAT_ID":48238,"ELEMENT_SET_NO":999,"REV_AT_EPOCH":24475,"BSTAR":0.0002365,"MEAN_MOTION_DOT":1e-06,"MEAN_MOTION_DDOT":0.0},{"OBJECT_NAME":"ONEWEB-0191","OBJECT_ID":"2021-031AF","EPOCH":"2026-05-20T23:35:07.636992","MEAN_MOTION":13.14500935,"ECCENTRICITY":0.0002002,"INCLINATION":87.8943,"RA_OF_ASC_NODE":295.1221,"ARG_OF_PERICENTER":99.3983,"MEAN_ANOMALY":260.7373,"EPHEMERIS_TYPE":0,"CLASSIFICATION_TYPE":"U","NORAD_CAT_ID":48239,"ELEMENT_SET_NO":999,"REV_AT_EPOCH":24459,"BSTAR":-0.0005507999999999999,"MEAN_MOTION_DOT":-1.91e-06,"MEAN_MOTION_DDOT":0.0},{"OBJECT_NAME":"ONEWEB-0195","OBJECT_ID":"2021-031AG","EPOCH":"2026-05-21T04:30:51.284448","MEAN_MOTION":13.14504499,"ECCENTRICITY":0.0001416,"INCLINATION":87.8953,"RA_OF_ASC_NODE":295.0816,"ARG_OF_PERICENTER":104.3416,"MEAN_ANOMALY":255.7871,"EPHEMERIS_TYPE":0,"CLASSIFICATION_TYPE":"U","NORAD_CAT_ID":48240,"ELEMENT_SET_NO":999,"REV_AT_EPOCH":24460,"BSTAR":0.00071535,"MEAN_MOTION_DOT":2.78e-06,"MEAN_MOTION_DDOT":0.0},{"OBJECT_NAME":"ONEWEB-0201","OBJECT_ID":"2021-031AH","EPOCH":"2026-05-21T04:13:56.774784","MEAN_MOTION":13.14505033,"ECCENTRICITY":0.0001992,"INCLINATION":87.8934,"RA_OF_ASC_NODE":295.1021,"ARG_OF_PERICENTER":105.393,"MEAN_ANOMALY":254.742,"EPHEMERIS_TYPE":0,"CLASSIFICATION_TYPE":"U","NORAD_CAT_ID":48241,"ELEMENT_SET_NO":999,"REV_AT_EPOCH":24483,"BSTAR":0.00078324,"MEAN_MOTION_DOT":3.03e-06,"MEAN_MOTION_DDOT":0.0},{"OBJECT_NAME":"ONEWEB-0207","OBJECT_ID":"2021-031AJ","EPOCH":"2026-05-20T16:47:30.615360","MEAN_MOTION":13.14503133,"ECCENTRICITY":0.0001936,"INCLINATION":87.8942,"RA_OF_ASC_NODE":295.1802,"ARG_OF_PERICENTER":104.6078,"MEAN_ANOMALY":255.5267,"EPHEMERIS_TYPE":0,"CLASSIFICATION_TYPE":"U","NORAD_CAT_ID":48242,"ELEMENT_SET_NO":999,"REV_AT_EPOCH":24468,"BSTAR":-0.0006804599999999999,"MEAN_MOTION_DOT":-2.39e-06,"MEAN_MOTION_DDOT":0.0},{"OBJECT_NAME":"ONEWEB-0208","OBJECT_ID":"2021-031AK","EPOCH":"2026-05-21T03:18:55.880064","MEAN_MOTION":13.14503671,"ECCENTRICITY":0.0001432,"INCLINATION":87.8943,"RA_OF_ASC_NODE":295.1001,"ARG_OF_PERICENTER":100.645,"MEAN_ANOMALY":259.4841,"EPHEMERIS_TYPE":0,"CLASSIFICATION_TYPE":"U","NORAD_CAT_ID":48243,"ELEMENT_SET_NO":999,"REV_AT_EPOCH":24475,"BSTAR":-0.00032575,"MEAN_MOTION_DOT":-1.08e-06,"MEAN_MOTION_DDOT":0.0},{"OBJECT_NAME":"ONEWEB-0200","OBJECT_ID":"2021-031AL","EPOCH":"2026-05-20T22:47:10.055616","MEAN_MOTION":13.14504145,"ECCENTRICITY":0.0001749,"INCLINATION":87.8938,"RA_OF_ASC_NODE":295.1244,"ARG_OF_PERICENTER":100.9127,"MEAN_ANOMALY":259.2199,"EPHEMERIS_TYPE":0,"CLASSIFICATION_TYPE":"U","NORAD_CAT_ID":48244,"ELEMENT_SET_NO":999,"REV_AT_EPOCH":24465,"BSTAR":0.00046724,"MEAN_MOTION_DOT":1.86e-06,"MEAN_MOTION_DDOT":0.0},{"OBJECT_NAME":"ONEWEB-0217","OBJECT_ID":"2021-031AM","EPOCH":"2026-05-20T23:10:00.422688","MEAN_MOTION":13.14503953,"ECCENTRICITY":0.000147,"INCLINATION":87.8945,"RA_OF_ASC_NODE":295.1247,"ARG_OF_PERICENTER":102.7216,"MEAN_ANOMALY":257.4079,"EPHEMERIS_TYPE":0,"CLASSIFICATION_TYPE":"U","NORAD_CAT_ID":48245,"ELEMENT_SET_NO":999,"REV_AT_EPOCH":24460,"BSTAR":0.00026495,"MEAN_MOTION_DOT":1.11e-06,"MEAN_MOTION_DDOT":0.0},{"OBJECT_NAME":"ONEWEB-0211","OBJECT_ID":"2021-045A","EPOCH":"2026-05-21T03:04:05.229120","MEAN_MOTION":13.16194771,"ECCENTRICITY":0.000117,"INCLINATION":87.8992,"RA_OF_ASC_NODE":264.4796,"ARG_OF_PERICENTER":100.1514,"MEAN_ANOMALY":259.9749,"EPHEMERIS_TYPE":0,"CLASSIFICATION_TYPE":"U","NORAD_CAT_ID":48767,"ELEMENT_SET_NO":999,"REV_AT_EPOCH":24088,"BSTAR":-0.00012116000000000001,"MEAN_MOTION_DOT":-3.3e-07,"MEAN_MOTION_DDOT":0.0},{"OBJECT_NAME":"ONEWEB-0223","OBJECT_ID":"2021-045B","EPOCH":"2026-05-21T06:27:19.220544","MEAN_MOTION":13.1554967,"ECCENTRICITY":0.0001505,"INCLINATION":87.8997,"RA_OF_ASC_NODE":264.5527,"ARG_OF_PERICENTER":92.7511,"MEAN_ANOMALY":267.3792,"EPHEMERIS_TYPE":0,"CLASSIFICATION_TYPE":"U","NORAD_CAT_ID":48768,"ELEMENT_SET_NO":999,"REV_AT_EPOCH":24086,"BSTAR":0.00031106,"MEAN_MOTION_DOT":1.3e-06,"MEAN_MOTION_DDOT":0.0},{"OBJECT_NAME":"ONEWEB-0230","OBJECT_ID":"2021-045C","EPOCH":"2026-05-21T02:07:10.793568","MEAN_MOTION":13.1554633,"ECCENTRICITY":0.0002054,"INCLINATION":87.8985,"RA_OF_ASC_NODE":264.6047,"ARG_OF_PERICENTER":99.6772,"MEAN_ANOMALY":260.4591,"EPHEMERIS_TYPE":0,"CLASSIFICATION_TYPE":"U","NORAD_CAT_ID":48769,"ELEMENT_SET_NO":999,"REV_AT_EPOCH":24110,"BSTAR":0.00017448,"MEAN_MOTION_DOT":7.9e-07,"MEAN_MOTION_DDOT":0.0},{"OBJECT_NAME":"ONEWEB-0237","OBJECT_ID":"2021-045D","EPOCH":"2026-05-20T18:33:08.844192","MEAN_MOTION":13.1554897,"ECCENTRICITY":0.000176,"INCLINATION":87.8984,"RA_OF_ASC_NODE":264.6693,"ARG_OF_PERICENTER":92.5902,"MEAN_ANOMALY":267.543,"EPHEMERIS_TYPE":0,"CLASSIFICATION_TYPE":"U","NORAD_CAT_ID":48770,"ELEMENT_SET_NO":999,"REV_AT_EPOCH":24078,"BSTAR":-9.1448e-05,"MEAN_MOTION_DOT":-2.2e-07,"MEAN_MOTION_DDOT":0.0}]